STARLINK-4122           
1 53272U 22086AG  22224.16667824  .00087303  00000+0  62027-3 0  9999
2 53272  53.2195 311.1112 0002054  29.5848  53.7219 15.73189381  3560
STARLINK-4051           
1 53273U 22086AH  22224.16667824  .00045134  00000+0  32391-3 0  9997
2 53273  53.2194 311.1052 0001698  49.9945  36.2296 15.73226092  3562
STARLINK-4050           
1 53274U 22086AJ  22224.16667824  .00051495  00000+0  36865-3 0  9995
2 53274  53.2194 311.1085 0001668  39.9792  44.4885 15.73226643  3562
STARLINK-4179           
1 53275U 22086AK  22223.91667824  .00004843  00000+0  38958-4 0  9999
2 53275  53.2195 312.3422 0002524  15.5239  94.4428 15.73172658  3520
STARLINK-4174           
1 53276U 22086AL  22223.91667824 -.00068479  00000+0 -48597-3 0  9996
2 53276  53.2200 312.3461 0002184  19.5024  89.4948 15.73268706  3520
STARLINK-4178           
1 53277U 22086AM  22224.16667824  .00085863  00000+0  61095-3 0  9997
2 53277  53.2193 311.1003 0001520  34.4191  54.2353 15.73161993  3569
STARLINK-4180           
1 53278U 22086AN  22223.91667824  .00005875  00000+0  46114-4 0  9991
2 53278  53.2192 312.3401 0001866  38.3331  72.2683 15.73271298  3528
STARLINK-4169           
1 53280U 22086AQ  22223.91667824 -.00002667  00000+0 -14559-4 0  9990
2 53280  53.2194 312.3394 0001720  23.9337  87.4185 15.73237647  3524
STARLINK-4182           
1 53281U 22086AR  22224.16667824  .00069558  00000+0  49552-3 0  9999
2 53281  53.2194 311.0974 0002130  29.6639  60.7206 15.73217984  3563
STARLINK-4164           
1 53282U 22086AS  22224.25001157 -.00029766  00000+0 -20781-3 0  9993
2 53282  53.2197 310.6878 0001479  36.6079 164.8398 15.73266766  3577
STARLINK-4175           
1 53283U 22086AT  22224.16667824  .00045879  00000+0  32962-3 0  9998
2 53283  53.2198 311.0974 0001648  37.9317  53.2211 15.73193069  3567
STARLINK-4172           
1 53284U 22086AU  22224.16667824  .00027206  00000+0  19759-3 0  9992
2 53284  53.2193 311.0976 0001749  36.8478  53.0852 15.73205239  3565
STARLINK-4173           
1 53285U 22086AV  22223.91667824  .00007220  00000+0  55828-4 0  9997
2 53285  53.2197 312.3318 0001676  33.5253  82.6146 15.73196081  3522
STARLINK-4165           
1 53286U 22086AW  22224.16667824  .00085550  00000+0  60809-3 0  9992
2 53286  53.2192 311.0942 0001825  53.0087  38.5605 15.73187355  3563
STARLINK-4107           
1 53287U 22086AX  22223.91667824  .00002083  00000+0  19205-4 0  9990
2 53287  53.2180 312.3303 0001956  31.1803  85.9684 15.73272965  3525
STARLINK-4162           
1 53288U 22086AY  22224.16667824 -.00003376  00000+0 -19567-4 0  9998
2 53288  53.2189 311.0921 0001806  46.7121  45.4002 15.73281124  3562
STARLINK-4176           
1 53289U 22086AZ  22224.16667824  .00042604  00000+0  30600-3 0  9994
2 53289  53.2193 311.0882 0001594  38.3819  56.7790 15.73232915  3562
STARLINK-4149           
1 53290U 22086BA  22224.16667824  .00085817  00000+0  60975-3 0  9997
2 53290  53.2191 311.0903 0001506  30.4085  63.0253 15.73195711  3564
STARLINK-4166           
1 53291U 22086BB  22224.16667824  .00043015  00000+0  30946-3 0  9997
2 53291  53.2179 311.0883 0001585  36.7724  59.1124 15.73189862  3567
STARLINK-4159           
1 53292U 22086BC  22224.16667824 -.00029399  00000+0 -20501-3 0  9995
2 53292  53.2191 311.0884 0001685  40.8149  53.6756 15.73285917  3569
STARLINK-4148           
1 53293U 22086BD  22224.16667824 -.00020813  00000+0 -14380-3 0  9996
2 53293  53.2195 311.0868 0001640  40.6539  55.6735 15.73269100  3563
STARLINK-4146           
1 53294U 22086BE  22224.16667824  .00087654  00000+0  62261-3 0  9992
2 53294  53.2190 311.0835 0001526  39.6721  57.2957 15.73194294  3562
FALCON 9 DEB            
1 53295U 22086BF  22224.12830531  .01825032  11816-4  80052-3 0  9997
2 53295  53.2166 308.0536 0036105 101.5078 259.0020 16.19946988  2990
FALCON 9 DEB            
1 53296U 22086BG  22224.18637606  .01637913  11809-4  74879-3 0  9993
2 53296  53.2105 307.6950 0034932  99.7033 260.7955 16.19559312  3004
FALCON 9 DEB            
1 53297U 22086BH  22223.67780314  .01454268  11818-4  65779-3 0  9991
2 53297  53.2183 310.2045 0034270  94.1482 266.3476 16.19754363  2921
FALCON 9 DEB            
1 53298U 22086BJ  22224.16390234  .02040799  11920-4  68929-3 0  9990
2 53298  53.2186 307.5333 0028764  92.9156 267.5179 16.23682134  3003
2022-087A               
1 53299U 22087A   22224.28550742  .00004172  00000+0  18988-3 0  9992
2 53299  97.4042 298.4574 0014233 223.2321 223.1555 15.21166330  2455
2022-087B               
1 53300U 22087B   22224.28157168  .00003832  00000+0  17282-3 0  9998
2 53300  97.4050 298.4636 0014019 230.6386 215.9831 15.21538369  2452
2022-087C               
1 53301U 22087C   22224.28084227  .00003690  00000+0  16619-3 0  9999
2 53301  97.4044 298.4638 0014880 230.6476 215.4038 15.21594972  2450
2022-087D               
1 53302U 22087D   22224.14712272  .00007363  00000+0  32578-3 0  9996
2 53302  97.4052 298.3388 0013869 237.5010 210.2894 15.21881888  2433
2022-087E               
1 53303U 22087E   22224.27748272  .00004418  00000+0  19642-3 0  9995
2 53303  97.4079 298.4757 0014975 236.1683 210.2575 15.21929568  2450
ZK-1A R/B               
1 53304U 22087F   22224.18720207  .00025449  00000+0  26451-3 0  9997
2 53304  97.2797 298.7475 0173913 253.9059 104.2984 15.47990762  2478
1998-067TQ              
1 53305U 98067TQ  22224.01205039  .00035220  00000+0  59658-3 0  9995
2 53305  51.6418  59.9719 0003796 111.4426 248.6968 15.51190796  3322
RS4S                    
1 53306U 98067TR  22224.13882909  .00040860  00000+0  68493-3 0  9999
2 53306  51.6418  59.3198 0003355 116.8577 243.2756 15.51415258  3346
1998-067TS              
1 53307U 98067TS  22224.07414430  .00038085  00000+0  63904-3 0  9991
2 53307  51.6413  59.6371 0003319 106.1491 253.9864 15.51420628  3362
RS3S                    
1 53308U 98067TT  22224.13829337  .00039174  00000+0  65663-3 0  9999
2 53308  51.6416  59.3163 0003075 109.2799 250.8523 15.51437005  3406
RS1S                    
1 53309U 98067TU  22224.00904389  .00037785  00000+0  63298-3 0  9995
2 53309  51.6414  59.9523 0003767 122.1245 238.0110 15.51468454  3333
RS5S                    
1 53310U 98067TV  22224.13783993  .00038605  00000+0  64686-3 0  9991
2 53310  51.6419  59.3132 0003417 123.8510 236.2805 15.51452724  3384
RS6S                    
1 53311U 98067TW  22224.13697770  .00042283  00000+0  70434-3 0  9994
2 53311  51.6412  59.3067 0002818 103.9746 256.1557 15.51577022  3406
RS9S                    
1 53312U 98067TX  22224.13714323  .00039522  00000+0  66010-3 0  9996
2 53312  51.6417  59.3076 0003942 125.0118 235.1242 15.51530755  3342
RS12S                   
1 53313U 98067TY  22224.13657193  .00040875  00000+0  68116-3 0  9990
2 53313  51.6417  59.3044 0003462 129.3069 230.8228 15.51579563  3398
2022-088A               
1 53316U 22088A   22224.16395833 -.00093571  00000+0 -38840-2 0  9999
2 53316  34.9994  39.1231 0007990  17.5994 312.8776 15.23384349  2061
2022-088B               
1 53317U 22088B   22224.22462963  .00028208  00000+0  11082-2 0  9998
2 53317  35.0060  38.6773 0008742  19.0073 310.5442 15.24728029  2078
2022-088C               
1 53318U 22088C   22224.23028935  .00005569  00000+0  23317-3 0  9997
2 53318  35.0027  38.7008 0005169 339.6166 358.9783 15.22899393  2073
2022-088D               
1 53319U 22088D   22223.57338363  .00016458  00000+0  64663-3 0  9991
2 53319  35.0067  42.7594 0008974  24.5289 335.5816 15.24809435  1983
2022-088E               
1 53320U 22088E   22223.90321170  .00008067  00000+0  33581-3 0  9990
2 53320  34.9970  40.7085 0004496 340.7584  19.2962 15.23017459  2047
COSMOS 2558             
1 53323U 22089A   22223.64764070  .00011276  00000+0  27438-3 0  9995
2 53323  97.2356 321.7332 0010216 231.0173 129.0164 15.41060857  1515
SL-4 R/B                
1 53324U 22089B   22224.22301826  .00079600  39262-5  43878-3 0  9996
2 53324  97.2546 322.8253 0103162  31.8401 328.9043 15.72272579  1633
2022-090A               
1 53346U 22090A   22224.27337771  .00002998  00000+0  13195-3 0  9992
2 53346  97.4723 297.0448 0009860 228.9476 216.8459 15.22599129  1247
2022-090B               
1 53347U 22090B   22224.20327008  .00008198  00000+0  34549-3 0  9992
2 53347  97.4731 296.9854 0011350 247.5353 197.2192 15.23537589  1221
2022-090C               
1 53348U 22090C   22224.25799800  .00010919  00000+0  45840-3 0  9991
2 53348  97.4719 297.0396 0010947 247.8254 137.6332 15.23585023  1236
CZ-4B R/B               
1 53349U 22090D   22223.74802033  .00053522  29267-5  37411-3 0  9992
2 53349  97.5155 297.0232 0157074   2.4078 357.7891 15.59445210  1195
SBIRS GEO-6 (USA 336)   
1 53355U 22092A   22223.96720900 -.00000126  00000+0  00000+0 0  9998
2 53355   9.0760 311.7430 2016718 177.6445 117.5817  1.34343212   130
ATLAS 5 CENTAUR R/B     
1 53356U 22092B   22223.72090175 -.00000310  00000+0  00000+0 0  9992
2 53356  16.4800 312.8597 5659431 177.5382 187.4308  1.99526870   147
PRC TEST SPACECRAFT2    
1 53357U 22093A   22224.27910870  .00001739  00000+0  42837-4 0  9992
2 53357  49.9928 126.3218 0180839 179.7786 180.3217 15.32123965  1171
CZ-2F R/B               
1 53358U 22093B   22223.75656212  .00008539  00000+0  16921-3 0  9991
2 53358  49.9888 128.9289 0179949 177.5386 182.6500 15.32345098  1088
CZ-2F DEB               
1 53359U 22093C   22224.13458669  .00126655  00000+0  23762-2 0  9991
2 53359  50.2998 127.5813 0238565 196.1192 163.2083 15.22419338  1142
CZ-2F DEB               
1 53360U 22093D   22224.02289664  .00109178  00000+0  22451-2 0  9993
2 53360  50.3340 128.3428 0249521 189.9312 169.6662 15.18288003  1113
CZ-2F DEB               
1 53361U 22093E   22224.00320449  .00089092  00000+0  23889-2 0  9997
2 53361  49.7523 129.7602 0341120 177.8107 182.4421 14.94990257  1103
